{"epoch":1784799577,"count":18318,"objects":[{"id":"56725","name":"ONEWEB-0721","type":"PAYLOAD","l1":"1 56725U 23068R   26203.92664570 -.00000086  00000-0 -24108-3 0  9990","l2":"2 56725  86.6737  74.1048 0001714  82.1072 278.0256 13.22471372162664"},{"id":"61594","name":"ONEWEB-0015","type":"PAYLOAD","l1":"1 61594U 24188A   26203.02449301 -.00000007  00000-0 -54887-4 0  9999","l2":"2 61594  87.8886  14.1549 0001357  81.3582 278.7700 13.11414931 89027"},{"id":"61595","name":"ONEWEB-0687","type":"PAYLOAD","l1":"1 61595U 24188B   26203.84484238  .00000002  00000-0 -29148-4 0  9994","l2":"2 61595  87.9153 358.7814 0001747  78.9972 281.1356 13.17648001 90598"},{"id":"61596","name":"ONEWEB-0688","type":"PAYLOAD","l1":"1 61596U 24188C   26203.87352171  .00000006  00000-0 -18962-4 0  9994","l2":"2 61596  87.9150 358.7763 0000744  66.3795 293.7415 13.17647434 90593"},{"id":"61597","name":"ONEWEB-0689","type":"PAYLOAD","l1":"1 61597U 24188D   26203.89766005 -.00000263  00000-0 -77875-3 0  9995","l2":"2 61597  87.8904  13.9437 0001986  84.0961 276.0393 13.11418778 89137"},{"id":"61598","name":"ONEWEB-0690","type":"PAYLOAD","l1":"1 61598U 24188E   26203.90784720  .00000152  00000-0  39210-3 0  9998","l2":"2 61598  87.8900  13.9524 0001819 112.6153 247.5168 13.11418991 89317"},{"id":"61599","name":"ONEWEB-0691","type":"PAYLOAD","l1":"1 61599U 24188F   26203.90276117 -.00000046  00000-0 -16443-3 0  9992","l2":"2 61599  87.8911  13.8657 0001542  83.1767 276.9537 13.11418516 89164"},{"id":"61600","name":"ONEWEB-0692","type":"PAYLOAD","l1":"1 61600U 24188G   26203.92309886  .00000633  00000-0  17496-2 0  9995","l2":"2 61600  87.8891  13.9681 0002605  90.3370 269.8057 13.11418352 89158"},{"id":"61601","name":"ONEWEB-0693","type":"PAYLOAD","l1":"1 61601U 24188H   26203.88534378  .00000014  00000-0  38905-5 0  9991","l2":"2 61601  87.9147 358.7920 0001746 121.5599 238.5703 13.17648315 90585"},{"id":"61602","name":"ONEWEB-0695","type":"PAYLOAD","l1":"1 61602U 24188J   26203.89936367 -.00000219  00000-0 -65384-3 0  9995","l2":"2 61602  87.8888  13.9649 0002275  84.9022 275.2365 13.11418712 89148"},{"id":"61603","name":"ONEWEB-0697","type":"PAYLOAD","l1":"1 61603U 24188K   26203.70269606  .00000527  00000-0  14509-2 0  9993","l2":"2 61603  87.8892  13.9945 0002590  93.1390 267.0035 13.11416048 89102"},{"id":"61604","name":"ONEWEB-0698","type":"PAYLOAD","l1":"1 61604U 24188L   26202.99398705  .00000403  00000-0  11002-2 0  9995","l2":"2 61604  87.8886  14.1489 0002719 112.0630 248.0787 13.11418373 89031"},{"id":"61605","name":"ONEWEB-0699","type":"PAYLOAD","l1":"1 61605U 24188M   26203.79785003  .00000226  00000-0  61203-3 0  9998","l2":"2 61605  87.8823  29.1684 0002466  93.1861 266.9548 13.10376638 87971"},{"id":"61606","name":"ONEWEB-0700","type":"PAYLOAD","l1":"1 61606U 24188N   26203.26506010  .00000442  00000-0  12297-2 0  9998","l2":"2 61606  87.8840  29.1894 0002377  92.4427 267.6973 13.10374258 87892"},{"id":"61607","name":"ONEWEB-0701","type":"PAYLOAD","l1":"1 61607U 24188P   26203.05295209  .00000602  00000-0  16888-2 0  9999","l2":"2 61607  87.8821  29.3172 0002603  95.5937 264.5487 13.10370945 87878"},{"id":"61608","name":"ONEWEB-0702","type":"PAYLOAD","l1":"1 61608U 24188Q   26202.73456774 -.00000519  00000-0 -15010-2 0  9995","l2":"2 61608  87.8908  14.1129 0002885  88.6940 271.4519 13.11416326 89014"},{"id":"61609","name":"ONEWEB-0704","type":"PAYLOAD","l1":"1 61609U 24188R   26203.49921257  .00000591  00000-0  16570-2 0  9993","l2":"2 61609  87.8826  29.2187 0002830  83.5424 276.6025 13.10373848 87912"},{"id":"61610","name":"ONEWEB-0705","type":"PAYLOAD","l1":"1 61610U 24188S   26203.80974076  .00000668  00000-0  18765-2 0  9990","l2":"2 61610  87.8828  29.1629 0002496  68.1722 291.9670 13.10373426 80128"},{"id":"61611","name":"ONEWEB-0706","type":"PAYLOAD","l1":"1 61611U 24188T   26203.48902412  .00000256  00000-0  69714-3 0  9994","l2":"2 61611  87.8835  29.2301 0002230  81.1784 278.9596 13.10375288 88009"},{"id":"61612","name":"ONEWEB-0707","type":"PAYLOAD","l1":"1 61612U 24188U   26203.49581380  .00000479  00000-0  13359-2 0  9993","l2":"2 61612  87.8828  29.2242 0002348  83.1081 277.0314 13.10373885 87949"},{"id":"61613","name":"ONEWEB-0708","type":"PAYLOAD","l1":"1 61613U 24188V   26203.74355475  .00000594  00000-0  16661-2 0  9993","l2":"2 61613  87.8816  29.1905 0001810  71.5757 288.5567 13.10370192 87952"}]}